start=new Date('2022-05-04T00:00:00.000Z').valueOf();
sats=[{"EPHEMERIS_TYPE":"0","SITE":"AFETR","ECCENTRICITY":"0.00014710","COUNTRY_CODE":"US","MEAN_MOTION_DDOT":"0.0000000000000","CLASSIFICATION_TYPE":"U","ARG_OF_PERICENTER":"62.3394","TIME_SYSTEM":"UTC","RCS_SIZE":"LARGE","TLE_LINE2":"2 45400  53.0544 328.1664 0001471  62.3394 297.7744 15.06398499117975","CENTER_NAME":"EARTH","RA_OF_ASC_NODE":"328.1664","APOAPSIS":"548.237","MEAN_ELEMENT_THEORY":"SGP4","REV_AT_EPOCH":"11797","MEAN_MOTION_DOT":"0.00002347","ELEMENT_SET_NO":"999","SEMIMAJOR_AXIS":"6925.353","PERIOD":"95.592","MEAN_MOTION":"15.06398499","BSTAR":"0.00017644000000","OBJECT_ID":"2020-019AS","TLE_LINE1":"1 45400U 20019AS  22123.74119247  .00002347  00000-0  17644-3 0  9991","FILE":"3427573","INCLINATION":"53.0544","OBJECT_TYPE":"PAYLOAD","DECAY_DATE":null,"PERIAPSIS":"546.199","LAUNCH_DATE":"2020-03-18","GP_ID":"202632104","NORAD_CAT_ID":"45400","OBJECT_NAME":"STARLINK-1213","EPOCH":"2022-05-03T17:47:19.029408","REF_FRAME":"TEME","MEAN_ANOMALY":"297.7744"},{"MEAN_MOTION_DOT":"0.00002760","ELEMENT_SET_NO":"999","SEMIMAJOR_AXIS":"6925.393","APOAPSIS":"548.304","MEAN_ELEMENT_THEORY":"SGP4","RA_OF_ASC_NODE":"328.4844","CENTER_NAME":"EARTH","TLE_LINE2":"2 45401  53.0558 328.4844 0001510  67.9564 292.1585 15.06385467118039","REV_AT_EPOCH":"11803","RCS_SIZE":"LARGE","TIME_SYSTEM":"UTC","ARG_OF_PERICENTER":"67.9564","ECCENTRICITY":"0.00015100","EPHEMERIS_TYPE":"0","SITE":"AFETR","CLASSIFICATION_TYPE":"U","MEAN_MOTION_DDOT":"0.0000000000000","COUNTRY_CODE":"US","MEAN_ANOMALY":"292.1585","REF_FRAME":"TEME","EPOCH":"2022-05-03T16:06:28.613664","DECAY_DATE":null,"OBJECT_TYPE":"PAYLOAD","FILE":"3427573","INCLINATION":"53.0558","NORAD_CAT_ID":"45401","GP_ID":"202632858","OBJECT_NAME":"STARLINK-1256","PERIAPSIS":"546.212","LAUNCH_DATE":"2020-03-18","BSTAR":"0.00020421000000","OBJECT_ID":"2020-019AT","TLE_LINE1":"1 45401U 20019AT  22123.67116451  .00002760  00000-0  20421-3 0  9994","MEAN_MOTION":"15.06385467","PERIOD":"95.593"},{"REF_FRAME":"TEME","MEAN_ANOMALY":"284.2297","EPOCH":"2022-05-03T16:01:09.217056","FILE":"3427573","INCLINATION":"53.0555","OBJECT_TYPE":"PAYLOAD","DECAY_DATE":null,"LAUNCH_DATE":"2020-03-18","PERIAPSIS":"546.512","GP_ID":"202633109","NORAD_CAT_ID":"45402","OBJECT_NAME":"STARLINK-1257","BSTAR":"0.00011420000000","OBJECT_ID":"2020-019AU","TLE_LINE1":"1 45402U 20019AU  22123.66746779  .00001419  00000-0  11420-3 0  9995","PERIOD":"95.593","MEAN_MOTION":"15.06382551","ELEMENT_SET_NO":"999","MEAN_MOTION_DOT":"0.00001419","SEMIMAJOR_AXIS":"6925.402","TLE_LINE2":"2 45402  53.0555 328.4930 0001090  75.8813 284.2297 15.06382551118045","CENTER_NAME":"EARTH","RA_OF_ASC_NODE":"328.4930","APOAPSIS":"548.022","MEAN_ELEMENT_THEORY":"SGP4","REV_AT_EPOCH":"11804","ARG_OF_PERICENTER":"75.8813","TIME_SYSTEM":"UTC","RCS_SIZE":"LARGE","SITE":"AFETR","EPHEMERIS_TYPE":"0","ECCENTRICITY":"0.00010900","COUNTRY_CODE":"US","MEAN_MOTION_DDOT":"0.0000000000000","CLASSIFICATION_TYPE":"U"},{"ARG_OF_PERICENTER":"73.9419","RCS_SIZE":"LARGE","TIME_SYSTEM":"UTC","SITE":"AFETR","EPHEMERIS_TYPE":"0","ECCENTRICITY":"0.00014410","COUNTRY_CODE":"US","MEAN_MOTION_DDOT":"0.0000000000000","CLASSIFICATION_TYPE":"U","ELEMENT_SET_NO":"999","MEAN_MOTION_DOT":"0.00001814","SEMIMAJOR_AXIS":"6925.365","RA_OF_ASC_NODE":"328.1432","CENTER_NAME":"EARTH","TLE_LINE2":"2 45403  53.0542 328.1432 0001441  73.9419 286.1728 15.06394519118044","APOAPSIS":"548.228","MEAN_ELEMENT_THEORY":"SGP4","REV_AT_EPOCH":"11804","BSTAR":"0.00014065000000","OBJECT_ID":"2020-019AV","TLE_LINE1":"1 45403U 20019AV  22123.74856180  .00001814  00000-0  14065-3 0  9990","PERIOD":"95.592","MEAN_MOTION":"15.06394519","MEAN_ANOMALY":"286.1728","REF_FRAME":"TEME","EPOCH":"2022-05-03T17:57:55.739520","OBJECT_TYPE":"PAYLOAD","FILE":"3427573","INCLINATION":"53.0542","DECAY_DATE":null,"OBJECT_NAME":"STARLINK-1259","GP_ID":"202631857","NORAD_CAT_ID":"45403","PERIAPSIS":"546.232","LAUNCH_DATE":"2020-03-18"},{"MEAN_ANOMALY":"286.0647","REF_FRAME":"TEME","EPOCH":"2022-05-03T19:49:22.658880","OBJECT_TYPE":"PAYLOAD","FILE":"3427573","INCLINATION":"53.0579","DECAY_DATE":null,"NORAD_CAT_ID":"45404","GP_ID":"202631605","OBJECT_NAME":"STARLINK-1260","LAUNCH_DATE":"2020-03-18","PERIAPSIS":"546.295","OBJECT_ID":"2020-019AW","BSTAR":"0.00008987400000","TLE_LINE1":"1 45404U 20019AW  22123.82595670  .00001057  00000-0  89874-4 0  9994","PERIOD":"95.592","MEAN_MOTION":"15.06396513","MEAN_MOTION_DOT":"0.00001057","ELEMENT_SET_NO":"999","SEMIMAJOR_AXIS":"6925.359","RA_OF_ASC_NODE":"327.7828","TLE_LINE2":"2 45404  53.0579 327.7828 0001342  74.0490 286.0647 15.06396513117965","CENTER_NAME":"EARTH","APOAPSIS":"548.154","MEAN_ELEMENT_THEORY":"SGP4","REV_AT_EPOCH":"11796","ARG_OF_PERICENTER":"74.0490","RCS_SIZE":"LARGE","TIME_SYSTEM":"UTC","SITE":"AFETR","EPHEMERIS_TYPE":"0","ECCENTRICITY":"0.00013420","MEAN_MOTION_DDOT":"0.0000000000000","COUNTRY_CODE":"US","CLASSIFICATION_TYPE":"U"},{"CLASSIFICATION_TYPE":"U","COUNTRY_CODE":"US","MEAN_MOTION_DDOT":"0.0000000000000","ECCENTRICITY":"0.00014790","SITE":"AFETR","EPHEMERIS_TYPE":"0","RCS_SIZE":"LARGE","TIME_SYSTEM":"UTC","ARG_OF_PERICENTER":"80.5268","REV_AT_EPOCH":"11794","MEAN_ELEMENT_THEORY":"SGP4","APOAPSIS":"548.245","RA_OF_ASC_NODE":"328.4431","TLE_LINE2":"2 45405  53.0562 328.4431 0001479  80.5268 279.5888 15.06397806117940","CENTER_NAME":"EARTH","SEMIMAJOR_AXIS":"6925.355","ELEMENT_SET_NO":"999","MEAN_MOTION_DOT":"-0.00001926","MEAN_MOTION":"15.06397806","PERIOD":"95.592","TLE_LINE1":"1 45405U 20019AX  22123.67853844 -.00001926  00000-0 -11047-3 0  9991","BSTAR":"-0.00011047000000","OBJECT_ID":"2020-019AX","NORAD_CAT_ID":"45405","GP_ID":"202632359","OBJECT_NAME":"STARLINK-1263","LAUNCH_DATE":"2020-03-18","PERIAPSIS":"546.196","DECAY_DATE":null,"OBJECT_TYPE":"PAYLOAD","FILE":"3427573","INCLINATION":"53.0562","REF_FRAME":"TEME","EPOCH":"2022-05-03T16:17:05.721216","MEAN_ANOMALY":"279.5888"},{"REF_FRAME":"TEME","MEAN_ANOMALY":"290.5110","EPOCH":"2022-05-03T19:38:46.745376","FILE":"3427573","INCLINATION":"53.0549","OBJECT_TYPE":"PAYLOAD","DECAY_DATE":null,"LAUNCH_DATE":"2020-03-18","PERIAPSIS":"545.987","OBJECT_NAME":"STARLINK-1265","GP_ID":"202632610","NORAD_CAT_ID":"45406","BSTAR":"0.00013260000000","OBJECT_ID":"2020-019AY","TLE_LINE1":"1 45406U 20019AY  22123.81859659  .00001694  00000-0  13260-3 0  9997","PERIOD":"95.592","MEAN_MOTION":"15.06398688","ELEMENT_SET_NO":"999","MEAN_MOTION_DOT":"0.00001694","SEMIMAJOR_AXIS":"6925.353","CENTER_NAME":"EARTH","TLE_LINE2":"2 45406  53.0549 327.8070 0001777  69.6070 290.5110 15.06398688117960","RA_OF_ASC_NODE":"327.8070","APOAPSIS":"548.448","MEAN_ELEMENT_THEORY":"SGP4","REV_AT_EPOCH":"11796","ARG_OF_PERICENTER":"69.6070","TIME_SYSTEM":"UTC","RCS_SIZE":"LARGE","SITE":"AFETR","EPHEMERIS_TYPE":"0","ECCENTRICITY":"0.00017770","MEAN_MOTION_DDOT":"0.0000000000000","COUNTRY_CODE":"US","CLASSIFICATION_TYPE":"U"},{"EPOCH":"2022-05-03T19:58:38.654976","REF_FRAME":"TEME","MEAN_ANOMALY":"277.2520","OBJECT_TYPE":"PAYLOAD","FILE":"3427573","INCLINATION":"53.0554","DECAY_DATE":null,"GP_ID":"202631358","OBJECT_NAME":"STARLINK-1275","NORAD_CAT_ID":"45407","LAUNCH_DATE":"2020-03-18","PERIAPSIS":"546.149","BSTAR":"0.00033293000000","OBJECT_ID":"2020-019AZ","TLE_LINE1":"1 45407U 20019AZ  22123.83239184  .00004682  00000-0  33293-3 0  9993","PERIOD":"95.592","MEAN_MOTION":"15.06406902","MEAN_MOTION_DOT":"0.00004682","ELEMENT_SET_NO":"999","SEMIMAJOR_AXIS":"6925.327","RA_OF_ASC_NODE":"327.7605","CENTER_NAME":"EARTH","TLE_LINE2":"2 45407  53.0554 327.7605 0001507  82.8640 277.2520 15.06406902117967","MEAN_ELEMENT_THEORY":"SGP4","APOAPSIS":"548.236","REV_AT_EPOCH":"11796","ARG_OF_PERICENTER":"82.8640","RCS_SIZE":"LARGE","TIME_SYSTEM":"UTC","SITE":"AFETR","EPHEMERIS_TYPE":"0","ECCENTRICITY":"0.00015070","MEAN_MOTION_DDOT":"0.0000000000000","COUNTRY_CODE":"US","CLASSIFICATION_TYPE":"U"},{"TLE_LINE1":"1 45408U 20019BA  22123.38089401  .00000425  00000-0  47418-4 0  9995","OBJECT_ID":"2020-019BA","BSTAR":"0.00004741800000","PERIOD":"95.593","MEAN_MOTION":"15.06390550","EPOCH":"2022-05-03T09:08:29.242464","REF_FRAME":"TEME","MEAN_ANOMALY":"292.9844","LAUNCH_DATE":"2020-03-18","PERIAPSIS":"546.039","OBJECT_NAME":"STARLINK-1278","GP_ID":"202598187","NORAD_CAT_ID":"45408","INCLINATION":"53.0548","FILE":"3427159","OBJECT_TYPE":"PAYLOAD","DECAY_DATE":null,"ARG_OF_PERICENTER":"67.1329","TIME_SYSTEM":"UTC","RCS_SIZE":"LARGE","COUNTRY_CODE":"US","MEAN_MOTION_DDOT":"0.0000000000000","CLASSIFICATION_TYPE":"U","SITE":"AFETR","EPHEMERIS_TYPE":"0","ECCENTRICITY":"0.00017380","SEMIMAJOR_AXIS":"6925.378","MEAN_MOTION_DOT":"0.00000425","ELEMENT_SET_NO":"999","REV_AT_EPOCH":"11748","TLE_LINE2":"2 45408  53.0548 359.7721 0001738  67.1329 292.9844 15.06390550117482","CENTER_NAME":"EARTH","RA_OF_ASC_NODE":"359.7721","APOAPSIS":"548.446","MEAN_ELEMENT_THEORY":"SGP4"},{"SEMIMAJOR_AXIS":"6925.360","MEAN_MOTION_DOT":"0.00000507","ELEMENT_SET_NO":"999","REV_AT_EPOCH":"11797","TLE_LINE2":"2 45409  53.0548 327.7073 0001451  70.5122 289.6023 15.06396413117979","CENTER_NAME":"EARTH","RA_OF_ASC_NODE":"327.7073","APOAPSIS":"548.229","MEAN_ELEMENT_THEORY":"SGP4","ARG_OF_PERICENTER":"70.5122","TIME_SYSTEM":"UTC","RCS_SIZE":"LARGE","COUNTRY_CODE":"US","MEAN_MOTION_DDOT":"0.0000000000000","CLASSIFICATION_TYPE":"U","SITE":"AFETR","EPHEMERIS_TYPE":"0","ECCENTRICITY":"0.00014510","EPOCH":"2022-05-03T20:10:37.374240","REF_FRAME":"TEME","MEAN_ANOMALY":"289.6023","PERIAPSIS":"546.220","LAUNCH_DATE":"2020-03-18","GP_ID":"202632859","OBJECT_NAME":"STARLINK-1282","NORAD_CAT_ID":"45409","FILE":"3427573","INCLINATION":"53.0548","OBJECT_TYPE":"PAYLOAD","DECAY_DATE":null,"TLE_LINE1":"1 45409U 20019BB  22123.84071035  .00000507  00000-0  52906-4 0  9990","BSTAR":"0.00005290600000","OBJECT_ID":"2020-019BB","PERIOD":"95.592","MEAN_MOTION":"15.06396413"}];
